YAOGAN-3                
1 32289U 07055A   26082.94218137  .00003005  00000+0  31403-3 0  9995
2 32289  97.8247 113.6453 0001421  77.8247 282.3130 14.90433622993160
YAOGAN-4                
1 33446U 08061A   26082.75415206  .00001238  00000+0  15872-3 0  9992
2 33446  97.9259  16.9309 0014238 355.2266   4.8809 14.83017577933005
YAOGAN-7                
1 36110U 09069A   26082.92010085  .00000691  00000+0  10288-3 0  9995
2 36110  98.0187 329.2653 0023717 316.8140  43.1210 14.77914979877033
YAOGAN-8                
1 36121U 09072A   26082.94259520 -.00000399  00000+0 -11012-2 0  9994
2 36121 100.2297 331.9228 0021154 154.5335 205.6819 13.05075063777555
YAOGAN-10               
1 36834U 10038A   26082.99181697  .00001519  00000+0  18409-3 0  9994
2 36834  97.9063 107.0589 0001602  83.7106 339.4485 14.85070177844567
YAOGAN-12               
1 37875U 11066B   26082.95791428  .00005075  00000+0  20247-3 0  9991
2 37875  97.1251 125.5536 0010655 158.9887 201.1792 15.25544934799040
YAOGAN-17 01C           
1 39241U 13046C   26082.92360841 -.00000077  00000+0  13643-4 0  9999
2 39241  63.3884 309.5698 0419610  11.1030 349.8910 13.45470368616907
YAOGAN-21               
1 40143U 14053A   26082.96940134  .00004553  00000+0  18427-3 0  9990
2 40143  97.1585 126.8918 0009465  44.5649 315.6349 15.25135654641964
YAOGAN-29               
1 41038U 15069A   26082.96355418  .00000768  00000+0  10119-3 0  9991
2 41038  98.0120 111.4297 0000873  12.0769 348.0465 14.83010760557991
YAOGAN-30 01            
1 41473U 16029A   26082.95855977  .00000665  00000+0  10307-3 0  9990
2 41473  97.9116 134.6566 0016884 145.3029 214.9286 14.76294995531092
JILIN-1 04              
1 43022U 17074A   26082.91031634  .00016047  00000+0  40168-3 0  9994
2 43022  97.4770 190.4406 0005319 135.2123 224.9553 15.40163411461137
YAOGAN-32 A             
1 43642U 18077A   26081.33918883  .00001133  00000+0  22994-3 0  9998
2 43642  98.1571 110.8971 0001836  85.3542 274.7870 14.63057334397149
YAOGAN-31 03B           
1 47693U 21014C   26082.91546409  .00000068  00000+0  24432-3 0  9994
2 47693  63.4022  57.7991 0169955   0.5805 359.5388 13.45442996249204
YAOGAN-32 02B           
1 49384U 21099B   26082.95030894  .00000990  00000+0  19790-3 0  9991
2 49384  98.2314 216.7349 0001707 114.7127 245.4253 14.64068404233894
JILIN-1 GAOFEN 03D10    
1 51840U 22019S   26082.24075385  .00257534  00000+0  12097-2 0  9990
2 51840  97.3670 176.3909 0003210 229.0296 131.0695 15.82477917226627
YAOGAN-35 05B           
1 53761U 22109B   26082.87160029  .00020159  00000+0  57286-3 0  9994
2 53761  34.9772 137.5029 0006432 124.4469 235.6858 15.35242952197730
YAOGAN-36 05A           
1 57452U 23106A   26079.91126231  .00000064  00000+0  41984-5 0  9994
2 57452  35.0037 252.8039 0001726 322.7123  37.3471 15.23047151147688
YAOGAN-39 03C           
1 57990U 23152E   26082.54192263  .00005126  00000+0  25358-3 0  9992
2 57990  34.9900 110.2552 0009347  97.7788 262.3987 15.17173493137146
YAOGAN-43 01G           
1 60464U 24148G   26082.94386439  .00008707  00000+0  30620-3 0  9998
2 60464  35.0008 330.0452 0005184  79.9410 280.1891 15.28590060 89229
YAOGAN-40 03B           
1 65545U 25199B   26082.95738601  .00000133  00000+0  61769-4 0  9997
2 65545  85.9852  82.3477 0002420  81.0208 279.1249 14.12430415 28001
