[ {"OBJECT_NAME": "JILIN-1 04", "NORAD_CAT_ID": 43022, "MEAN_MOTION": 15.40163411, "ECCENTRICITY": 0.0005319, "INCLINATION": 97.477, "RA_OF_ASC_NODE": 190.4406, "ARG_OF_PERICENTER": 135.2123, "MEAN_ANOMALY": 224.9553, "BSTAR": 0.00040168, "EPOCH": "2026-03-23T21:50:51"}, {"OBJECT_NAME": "JILIN-1 GAOFEN 03D10", "NORAD_CAT_ID": 51840, "MEAN_MOTION": 15.82477917, "ECCENTRICITY": 0.000321, "INCLINATION": 97.367, "RA_OF_ASC_NODE": 176.3909, "ARG_OF_PERICENTER": 229.0296, "MEAN_ANOMALY": 131.0695, "BSTAR": 0.0012097, "EPOCH": "2026-03-23T05:46:41"}, {"OBJECT_NAME": "YAOGAN-29", "NORAD_CAT_ID": 41038, "MEAN_MOTION": 14.8301076, "ECCENTRICITY": 8.73e-05, "INCLINATION": 98.012, "RA_OF_ASC_NODE": 111.4297, "ARG_OF_PERICENTER": 12.0769, "MEAN_ANOMALY": 348.0465, "BSTAR": 0.00010119, "EPOCH": "2026-03-23T23:07:31"}, {"OBJECT_NAME": "YAOGAN-7", "NORAD_CAT_ID": 36110, "MEAN_MOTION": 14.77914979, "ECCENTRICITY": 0.0023717, "INCLINATION": 98.0187, "RA_OF_ASC_NODE": 329.2653, "ARG_OF_PERICENTER": 316.814, "MEAN_ANOMALY": 43.121, "BSTAR": 0.00010288, "EPOCH": "2026-03-23T22:04:56"}, {"OBJECT_NAME": "YAOGAN-10", "NORAD_CAT_ID": 36834, "MEAN_MOTION": 14.85070177, "ECCENTRICITY": 0.0001602, "INCLINATION": 97.9063, "RA_OF_ASC_NODE": 107.0589, "ARG_OF_PERICENTER": 83.7106, "MEAN_ANOMALY": 339.4485, "BSTAR": 0.00018409, "EPOCH": "2026-03-23T23:48:12"}, {"OBJECT_NAME": "YAOGAN-21", "NORAD_CAT_ID": 40143, "MEAN_MOTION": 15.25135654, "ECCENTRICITY": 0.0009465, "INCLINATION": 97.1585, "RA_OF_ASC_NODE": 126.8918, "ARG_OF_PERICENTER": 44.5649, "MEAN_ANOMALY": 315.6349, "BSTAR": 0.00018427, "EPOCH": "2026-03-23T23:15:56"}, {"OBJECT_NAME": "YAOGAN-12", "NORAD_CAT_ID": 37875, "MEAN_MOTION": 15.25544934, "ECCENTRICITY": 0.0010655, "INCLINATION": 97.1251, "RA_OF_ASC_NODE": 125.5536, "ARG_OF_PERICENTER": 158.9887, "MEAN_ANOMALY": 201.1792, "BSTAR": 0.00020247, "EPOCH": "2026-03-23T22:59:23"}, {"OBJECT_NAME": "YAOGAN-3", "NORAD_CAT_ID": 32289, "MEAN_MOTION": 14.90433622, "ECCENTRICITY": 0.0001421, "INCLINATION": 97.8247, "RA_OF_ASC_NODE": 113.6453, "ARG_OF_PERICENTER": 77.8247, "MEAN_ANOMALY": 282.313, "BSTAR": 0.00031403, "EPOCH": "2026-03-23T22:36:44"}, {"OBJECT_NAME": "YAOGAN-4", "NORAD_CAT_ID": 33446, "MEAN_MOTION": 14.83017577, "ECCENTRICITY": 0.0014238, "INCLINATION": 97.9259, "RA_OF_ASC_NODE": 16.9309, "ARG_OF_PERICENTER": 355.2266, "MEAN_ANOMALY": 4.8809, "BSTAR": 0.00015872, "EPOCH": "2026-03-23T18:05:58"}, {"OBJECT_NAME": "YAOGAN-31 03B", "NORAD_CAT_ID": 47693, "MEAN_MOTION": 13.45442996, "ECCENTRICITY": 0.0169955, "INCLINATION": 63.4022, "RA_OF_ASC_NODE": 57.7991, "ARG_OF_PERICENTER": 0.5805, "MEAN_ANOMALY": 359.5388, "BSTAR": 0.00024432, "EPOCH": "2026-03-23T21:58:16"}, {"OBJECT_NAME": "YAOGAN-39 03C", "NORAD_CAT_ID": 57990, "MEAN_MOTION": 15.17173493, "ECCENTRICITY": 0.0009347, "INCLINATION": 34.99, "RA_OF_ASC_NODE": 110.2552, "ARG_OF_PERICENTER": 97.7788, "MEAN_ANOMALY": 262.3987, "BSTAR": 0.00025358000000000005, "EPOCH": "2026-03-23T13:00:22"}, {"OBJECT_NAME": "YAOGAN-32 A", "NORAD_CAT_ID": 43642, "MEAN_MOTION": 14.63057334, "ECCENTRICITY": 0.0001836, "INCLINATION": 98.1571, "RA_OF_ASC_NODE": 110.8971, "ARG_OF_PERICENTER": 85.3542, "MEAN_ANOMALY": 274.787, "BSTAR": 0.00022994, "EPOCH": "2026-03-22T08:08:25"}, {"OBJECT_NAME": "YAOGAN-36 05A", "NORAD_CAT_ID": 57452, "MEAN_MOTION": 15.23047151, "ECCENTRICITY": 0.0001726, "INCLINATION": 35.0037, "RA_OF_ASC_NODE": 252.8039, "ARG_OF_PERICENTER": 322.7123, "MEAN_ANOMALY": 37.3471, "BSTAR": 4.1984e-06, "EPOCH": "2026-03-20T21:52:13"}, {"OBJECT_NAME": "YAOGAN-30 01", "NORAD_CAT_ID": 41473, "MEAN_MOTION": 14.76294995, "ECCENTRICITY": 0.0016884, "INCLINATION": 97.9116, "RA_OF_ASC_NODE": 134.6566, "ARG_OF_PERICENTER": 145.3029, "MEAN_ANOMALY": 214.9286, "BSTAR": 0.00010307, "EPOCH": "2026-03-23T23:00:19"}, {"OBJECT_NAME": "YAOGAN-35 05B", "NORAD_CAT_ID": 53761, "MEAN_MOTION": 15.35242952, "ECCENTRICITY": 0.0006432, "INCLINATION": 34.9772, "RA_OF_ASC_NODE": 137.5029, "ARG_OF_PERICENTER": 124.4469, "MEAN_ANOMALY": 235.6858, "BSTAR": 0.00057286, "EPOCH": "2026-03-23T20:55:06"}, {"OBJECT_NAME": "YAOGAN-40 03B", "NORAD_CAT_ID": 65545, "MEAN_MOTION": 14.12430415, "ECCENTRICITY": 0.000242, "INCLINATION": 85.9852, "RA_OF_ASC_NODE": 82.3477, "ARG_OF_PERICENTER": 81.0208, "MEAN_ANOMALY": 279.1249, "BSTAR": 6.1769e-05, "EPOCH": "2026-03-23T22:58:38"}, {"OBJECT_NAME": "YAOGAN-17 01C", "NORAD_CAT_ID": 39241, "MEAN_MOTION": 13.45470368, "ECCENTRICITY": 0.041961, "INCLINATION": 63.3884, "RA_OF_ASC_NODE": 309.5698, "ARG_OF_PERICENTER": 11.103, "MEAN_ANOMALY": 349.891, "BSTAR": 1.3643e-05, "EPOCH": "2026-03-23T22:09:59"}, {"OBJECT_NAME": "YAOGAN-32 02B", "NORAD_CAT_ID": 49384, "MEAN_MOTION": 14.64068404, "ECCENTRICITY": 0.0001707, "INCLINATION": 98.2314, "RA_OF_ASC_NODE": 216.7349, "ARG_OF_PERICENTER": 114.7127, "MEAN_ANOMALY": 245.4253, "BSTAR": 0.00019789999999999999, "EPOCH": "2026-03-23T22:48:26"}, {"OBJECT_NAME": "YAOGAN-43 01G", "NORAD_CAT_ID": 60464, "MEAN_MOTION": 15.2859006, "ECCENTRICITY": 0.0005184, "INCLINATION": 35.0008, "RA_OF_ASC_NODE": 330.0452, "ARG_OF_PERICENTER": 79.941, "MEAN_ANOMALY": 280.1891, "BSTAR": 0.0003062, "EPOCH": "2026-03-23T22:39:09"}, {"OBJECT_NAME": "YAOGAN-8", "NORAD_CAT_ID": 36121, "MEAN_MOTION": 13.05075063, "ECCENTRICITY": 0.0021154, "INCLINATION": 100.2297, "RA_OF_ASC_NODE": 331.9228, "ARG_OF_PERICENTER": 154.5335, "MEAN_ANOMALY": 205.6819, "BSTAR": -0.0011011999999999999, "EPOCH": "2026-03-23T22:37:20"}]